
inDegrees=no
DataType=double
version=3
OpenSimVersion=4.4.1-2023-07-13-710e13be5
endheader
time	/jointset/ground_pelvis/pelvis_tilt/value	/jointset/ground_pelvis/pelvis_list/value	/jointset/ground_pelvis/pelvis_rotation/value	/jointset/ground_pelvis/pelvis_tx/value	/jointset/ground_pelvis/pelvis_ty/value	/jointset/ground_pelvis/pelvis_tz/value	/jointset/hip_r/hip_flexion_r/value	/jointset/hip_r/hip_adduction_r/value	/jointset/hip_r/hip_rotation_r/value	/jointset/hip_l/hip_flexion_l/value	/jointset/hip_l/hip_adduction_l/value	/jointset/hip_l/hip_rotation_l/value	/jointset/back/lumbar_extension/value	/jointset/back/lumbar_bending/value	/jointset/back/lumbar_rotation/value	/jointset/knee_r/knee_angle_r/value	/jointset/knee_l/knee_angle_l/value	/jointset/acromial_r/arm_flex_r/value	/jointset/acromial_r/arm_add_r/value	/jointset/acromial_r/arm_rot_r/value	/jointset/acromial_l/arm_flex_l/value	/jointset/acromial_l/arm_add_l/value	/jointset/acromial_l/arm_rot_l/value	/jointset/ankle_r/ankle_angle_r/value	/jointset/ankle_l/ankle_angle_l/value	/jointset/elbow_r/elbow_flex_r/value	/jointset/elbow_l/elbow_flex_l/value	/jointset/subtalar_r/subtalar_angle_r/value	/jointset/subtalar_l/subtalar_angle_l/value	/jointset/radioulnar_r/pro_sup_r/value	/jointset/radioulnar_l/pro_sup_l/value	/jointset/mtp_r/mtp_angle_r/value	/jointset/mtp_l/mtp_angle_l/value	/jointset/ground_pelvis/pelvis_tilt/speed	/jointset/ground_pelvis/pelvis_list/speed	/jointset/ground_pelvis/pelvis_rotation/speed	/jointset/ground_pelvis/pelvis_tx/speed	/jointset/ground_pelvis/pelvis_ty/speed	/jointset/ground_pelvis/pelvis_tz/speed	/jointset/hip_r/hip_flexion_r/speed	/jointset/hip_r/hip_adduction_r/speed	/jointset/hip_r/hip_rotation_r/speed	/jointset/hip_l/hip_flexion_l/speed	/jointset/hip_l/hip_adduction_l/speed	/jointset/hip_l/hip_rotation_l/speed	/jointset/back/lumbar_extension/speed	/jointset/back/lumbar_bending/speed	/jointset/back/lumbar_rotation/speed	/jointset/knee_r/knee_angle_r/speed	/jointset/knee_l/knee_angle_l/speed	/jointset/acromial_r/arm_flex_r/speed	/jointset/acromial_r/arm_add_r/speed	/jointset/acromial_r/arm_rot_r/speed	/jointset/acromial_l/arm_flex_l/speed	/jointset/acromial_l/arm_add_l/speed	/jointset/acromial_l/arm_rot_l/speed	/jointset/ankle_r/ankle_angle_r/speed	/jointset/ankle_l/ankle_angle_l/speed	/jointset/elbow_r/elbow_flex_r/speed	/jointset/elbow_l/elbow_flex_l/speed	/jointset/subtalar_r/subtalar_angle_r/speed	/jointset/subtalar_l/subtalar_angle_l/speed	/jointset/radioulnar_r/pro_sup_r/speed	/jointset/radioulnar_l/pro_sup_l/speed	/jointset/mtp_r/mtp_angle_r/speed	/jointset/mtp_l/mtp_angle_l/speed
0.352	-0.07590619544801895	-0.1959944209663076	0.05041212459811316	-2.65572696497796	0.9878662176389099	0.1620007580161864	0.7239303568731934	0.1363281383282153	-0.3795756087021248	0.07928392217349203	-0.2690802912278957	-0.0647317030151786	-0.3113353082913327	0.3040132619077007	0.04944492927116725	-0.5787779979268377	-2.269812108618224	-0.5048237993529364	-0.6607345283816527	0.2531635125370759	0.1240283173255068	-0.2559010821343862	0.4330665463329942	0.0712501560711217	-0.2315518459889839	1.278242254898704	0.8996336734911936	-0.01718233617044379	-0.06017273890734132	1.385039095780087	1.798734418113034	0.9852271940073439	0.3879647362904377	0.8712180139915349	0.7297682998943136	0.3073573693873679	9.910229100584155	-0.4100534950510697	0.05565924675681351	-8.45398306199122	-1.157158862301092	-2.088093728979943	6.275125068838259	-0.2210341119248809	0.7061775319711689	2.143334076546852	-0.9565641963744742	4.001604987004049	-3.011037914830945	-4.205598844329886	2.627329797840046	-0.04933456031696402	-0.3939973125844217	-2.880742372322722	-0.282235024531432	0.07894383592788555	-3.256076365838286	0.3920691256326566	0.9686607187464484	-1.594512917543809	-2.841912016480399	-0.1871766090856872	0.1029118703835563	-0.2042878406364072	1.843000965341332	0.1254863371253809
0.3624772727272727	-0.0629726487435117	-0.1919640675577911	0.0378588713058647	-2.55586762679314	0.9836226329139222	0.1669814600946007	0.639817539712655	0.1627419299132926	-0.3382432352000117	0.1689564242279965	-0.282473912582726	-0.04994632428169517	-0.3152377062441618	0.2838818078951829	0.08339640632329356	-0.6087878223983428	-2.351321087044933	-0.4164508897003427	-0.6545265901355615	0.2507521774762297	0.06063019708089899	-0.2727780763933179	0.4279567730710967	0.1557669704503249	-0.2184014790499769	1.304998812182989	0.8573854190276584	0.04417317291793176	-0.06589405826374595	1.388771331402465	1.793885441972356	0.8927996086119939	0.3885354752950771	1.502106459585757	0.08026864982626611	-2.331466874665106	9.226015678238351	-0.4015200897872255	0.7476587031482076	-7.720802043352641	4.822434400973102	7.101255759417992	10.63903557220212	-1.923580025051708	1.898536706223149	-2.283018056721906	-2.488695942503234	2.74853974235443	-3.378119149042423	-10.18472679508726	13.1723652181262	1.01557580551501	-0.1377308376884394	-8.591653918093549	-2.577630638472265	-0.9471448955482721	12.7981905851914	1.952923433468591	3.828363786788047	-5.949942853451649	9.195958822927135	-0.7840705350455066	0.5965792053393968	-0.7581787300081482	-13.08905179580379	0.07915438762061969
0.3729545454545454	-0.04643248862113136	-0.1934598854462332	0.009356014532850102	-2.4608460417761	0.9794207299932989	0.1745779604778715	0.5596604584449338	0.2085290757231971	-0.2910529844776848	0.2979586164238734	-0.3007529652947129	-0.02950964134109183	-0.3464923364349937	0.2601957255251984	0.1126796365835551	-0.6634075334114619	-2.458735248198052	-0.2512190848761921	-0.6440382058942572	0.2487806439872714	-0.04281225379256301	-0.30233336850686	0.4154658900472771	0.2013138310495371	-0.1940924377188893	1.351957116796141	0.7858577019876019	0.06323892725520641	-0.07406934557719817	1.397268716907379	1.782074982512071	0.8450065214656195	0.3916285778537439	1.559682180526964	-0.3251190626487887	-2.737252405682963	8.986753441658928	-0.4020968816365949	0.5549873396578184	-7.698875125835227	2.541008538533623	-0.9698872314120101	13.78274487890502	-1.153611030427673	1.784951437017918	-3.07791632897212	-1.635104967431024	3.110486293546129	-7.708803675486119	-9.150622878872564	17.29887594772512	0.767757083020904	-0.3100438671915069	-10.52477945548795	-2.702387326496103	-1.330031563311049	-10.6950263281793	2.522141460780375	4.8249595580962	-7.183651110025131	-10.91457669781853	-0.6556130086956368	1.012528333861093	-1.533161012274958	10.36325225798745	0.6069787292173716
0.3834318181818182	-0.02694025815371664	-0.1893681096589203	-0.02448827379068731	-2.365876180434508	0.9754872166160566	0.1781558777083773	0.4658870578340165	0.2040949484553864	-0.325809235433998	0.4396046310753545	-0.2971753204319973	-0.02983429641528074	-0.3786388434667899	0.2394791402819603	0.1555724223841361	-0.7609776674739002	-2.527342608332792	-0.06515793996721944	-0.6424934843088951	0.2472514251211568	-0.1559527437152943	-0.3300733224182885	0.3979567385289741	0.2849064930417278	-0.1650170007071229	1.401223890741092	0.7193256409251177	0.1158097344800517	-0.08209169487415362	1.408360358328281	1.769467304636908	0.7195131909840752	0.3950033355039036	1.931567492042558	0.986534583570896	-3.669013095991148	9.161559914896618	-0.351845424576632	0.2079693508047141	-9.999164558835201	-2.589635863815439	-4.419278259108471	13.19372812969736	1.386269212981067	-1.424694785309072	-2.737781265606878	-2.38002763208029	4.738790120988519	-9.723067758923872	-4.029953358631414	17.95963264338657	-0.2192117066658434	0.07423069455224265	-11.1961988996367	-2.655788331106514	-2.018037970712069	18.80411198870556	2.939248850106275	4.583976074067425	-5.470628475910037	13.68024912021396	-0.8652082420409668	1.053046284643726	-0.9230906267299731	-24.05370971972812	0.1017867568497889
0.3939090909090909	-0.01076874172323712	-0.1752949432240633	-0.06638971551498579	-2.268459506317945	0.9719835042343532	0.1806116054205847	0.3543717356042355	0.1709819788774473	-0.3575594610423842	0.5731228634886845	-0.2811396570482396	-0.05051583829841365	-0.3971405698780674	0.2090543907361634	0.2048857057846936	-0.8421464048038413	-2.54494463237811	0.1196982949926302	-0.6433160548844912	0.2515116320699973	-0.280014781121864	-0.3593025255336421	0.3730581524985386	0.4308970065487681	-0.134362610619694	1.448105125405994	0.6721867363961458	0.1975725088623221	-0.09197811185166999	1.418251434694295	1.761693112898913	0.5560679765437473	0.3951143010705922	0.9257931669688337	1.580222319095004	-4.275277349862952	9.453823993063519	-0.3200524399719133	0.3407732884424934	-11.08561938279835	-2.933477629126489	-0.3960689437383301	12.23123764038595	1.224492288122654	-2.100961880090699	-0.4732727398058703	-3.488290344058296	4.336091041480898	-4.57795137080122	0.5857536414511438	17.06887144550641	0.3158661716015321	0.7950959846871175	-12.60958678429007	-2.986669170195472	-2.740596068880788	1.216060295045794	2.82354682012592	4.369585465592107	-3.48170365894251	-5.342140450848013	-1.01144371561399	0.783353225769699	-0.610499884138976	3.118641003382374	-0.01604448845173627
0.4043863636363636	-0.005459750460209307	-0.1521589614402403	-0.09781151281964717	-2.16755686830973	0.9688287946173816	0.1848555751634738	0.2268246114224965	0.1404083631023184	-0.343691744315565	0.6990762659481548	-0.2600764078926747	-0.05898736198447154	-0.3877969715866103	0.1662084362136384	0.2291999773435767	-0.8444650945875072	-2.520245308283613	0.2849182506192835	-0.6295818988819083	0.2581534141923104	-0.4212828841809714	-0.3934841706033643	0.3403043127204716	0.4774104043728925	-0.1045256639145746	1.495433166671374	0.6476353315946928	0.1869979035784695	-0.1030830264667218	1.427512222167997	1.75402704589769	0.4788565840909202	0.3945362144136114	0.08238582083463084	2.670030431105096	-1.561182291702298	9.784083485263245	-0.2967864764054353	0.4407944017681716	-13.11587736183627	-2.662441132665222	3.076882039123491	12.24727387388228	2.946173328564397	0.4978643433625179	2.120068857862155	-4.43085276754914	0.3469730800773527	3.61589588414131	3.840181584239781	14.49395903982092	2.146663063403683	0.4604407160817965	-14.33957575710396	-3.509133586130046	-3.602090022408034	5.443197982748403	2.87716649451661	4.71347179405416	-1.178831740208131	2.175935836468321	-1.225542252240574	0.9921772489510243	-0.7690372262157853	-12.73219414200748	-0.08779531691690516
0.4148636363636363	-0.009152416921613752	-0.122827481878369	-0.09571675044344659	-2.063927429522851	0.9654577378807462	0.1892497684673122	0.08259162037287018	0.12022626418957	-0.2923804435401843	0.8388813929206842	-0.2162625284995488	-0.03978940274243528	-0.3555820196848777	0.1216496588130278	0.2130307627288892	-0.7772616264310448	-2.47052920832982	0.4239175620811688	-0.6016691493690722	0.2609020303611164	-0.5801291123221421	-0.4322248386125718	0.2956852485010682	0.4984448850754584	-0.07396482507551906	1.547892955515198	0.6480310714544857	0.2191202978787712	-0.1201141583670927	1.439204342100062	1.747334982305667	0.3966685692472543	0.3934110208178955	-0.7925276134000145	2.762876992561921	2.122677643446924	9.974341278361576	-0.3613508055476207	0.369449369491409	-14.27077401267705	-0.949847512229539	6.751513260759301	14.87538461901763	5.567345782494356	3.180848310087797	3.892625563240196	-3.815250025775288	-3.391776167356869	8.693089624277492	5.361190247998068	12.06362917544225	3.022408967485036	0.05193198488529967	-15.96506402338242	-3.856938191181793	-5.005541298463426	-3.647594166336318	2.961730134196138	5.349181532627021	1.280441092011157	2.808262940487293	-2.142695605219367	1.247468749274893	-0.4245729860704552	2.168656685825285	-0.1204813878198201
0.425340909090909	-0.02136546983951023	-0.09699736385304629	-0.06605105301967858	-1.958609107229613	0.9612177128194306	0.1928045828160446	-0.07506972965383679	0.123922910688807	-0.1862302671667858	1.001263679908688	-0.1510786514889811	-0.006443040326891072	-0.3108008761504837	0.08518680629080679	0.173182273001663	-0.6639799944712603	-2.406331409433209	0.5404326002063085	-0.5721946544490791	0.2601029765735875	-0.754684628140439	-0.4699513241877667	0.2370514437908486	0.4367621277083106	-0.04573233420649165	1.609374711036387	0.6708650680979147	0.241129938573178	-0.1438388541569942	1.451771509387452	1.744513363524219	0.4124981789855091	0.3910068713402092	-1.659963078616165	2.44394824178614	2.825336651205721	10.1148130594219	-0.4296452807108382	0.3178154176963767	-15.41914018610793	0.6704071275895555	11.6066053334165	15.51928647890577	6.408925104267202	2.594286779772022	4.736363276540443	-3.500554661910781	-3.455242196587801	12.82077240891277	7.204930159229805	10.34117946736478	2.483246770143567	-0.2806095899159748	-17.11209749689858	-3.13668542678308	-6.023253821974409	-8.167235010081347	2.516523171520408	6.393694530514638	2.833312372328801	0.8950503275539199	-2.234671333320895	1.158486348946079	-0.1858840959714689	0.01068464720077864	-0.3420941189433077
0.4358181818181818	-0.04647480471646012	-0.06582947341157536	-0.05149250440939566	-1.852290310963457	0.956839853118152	0.1960915099110917	-0.2320027100401031	0.1136322085789744	-0.08908397946013974	1.151458356010405	-0.09174461145708092	0.002202578590855057	-0.2546417153849985	0.0408491752580871	0.1565455344375455	-0.5109214961879326	-2.313027026137307	0.6440347058892101	-0.5521633083180006	0.2534263638353041	-0.9336001584543991	-0.4935949176585558	0.1729025326850354	0.3264608422724112	-0.01936788146043619	1.682009526324781	0.7022676917309649	0.2274383540815695	-0.1637676317223952	1.46362692327523	1.741934490019449	0.3792411292435339	0.3861661324808833	-3.254290763935156	3.781801011262652	-0.761116490146763	10.16532112568625	-0.387661973262887	0.3183125401545132	-14.13173599020682	-3.619883689231977	5.032766617214381	12.548899243761	4.450674081577342	-1.534261077778216	6.064568114945235	-5.318461541879154	1.039100410416611	16.28607061445496	10.91732783397991	9.598687624646253	1.219812235544711	-1.070031545844417	-16.79734444771725	-1.168663776457908	-6.058316488945517	-12.92835440505682	2.60514151202362	7.47818209556396	2.916100907817393	-4.006721476799767	-1.418095163232281	1.111602590563729	-0.378235492908658	-7.201464863546174	-0.5856004021024196
0.4462954545454545	-0.09073022419150201	-0.01344864867778322	-0.07983963690725526	-1.746489774313378	0.9530056596945009	0.199602959507199	-0.3577410808883473	0.04388867922051324	-0.1146413294828247	1.269328986813972	-0.06279556994588756	-0.03243637916079257	-0.1800967219123053	-0.02731379617703028	0.1939731785745221	-0.332724777252631	-2.178131274496897	0.7429282660909567	-0.5442582071883086	0.2373208932247407	-1.105161978949852	-0.4971646020325091	0.1060113139070616	0.1322862237823221	0.01254901079767359	1.764782083268674	0.7356128979733741	0.2102636807804278	-0.1782320905527273	1.47704182004179	1.73890228105557	0.3422636890398058	0.3801562866064743	-4.746512762913381	5.757520576520149	-3.578021847892269	10.00589482235001	-0.3387537351347647	0.307323360644126	-9.976752816787593	-8.458261286817516	-7.066872604457376	10.10974016208903	1.766687337433512	-4.346639470198412	7.494027596183376	-7.150930260511748	4.823505650913011	16.10101932998786	14.51855473778482	9.211837200587121	0.3445632642204663	-1.924184577424011	-15.73826091854061	0.4042191914187034	-6.715635627089289	-21.69194232720313	3.286882103636456	8.330595194530304	3.497186015903895	0.1872044519473039	-1.368204995463819	1.427207861432765	-0.1597644049077397	-2.10580437873122	-0.5245096093205442
0.4567727272727272	-0.1365673454335763	0.0451856020961497	-0.1040044674049723	-1.64314481823886	0.9498564852914632	0.2015954487778042	-0.4432899715818314	-0.03772473249543929	-0.1775614489500302	1.366622331924317	-0.04023866492363379	-0.07355504260158587	-0.1116735372452794	-0.09763386950135784	0.2307575714961779	-0.2076620821331147	-2.015382959985207	0.8356563238960071	-0.5437827687368877	0.2147853952312301	-1.258909801804047	-0.486864539547245	0.03207195554328492	-0.07683805678598099	0.04530434662511104	1.856748876522481	0.7765563224507465	0.2200235883720783	-0.1929655634950544	1.493073447231301	1.739441992076975	0.2879951200909475	0.3759528048347575	-3.55622081924721	4.975513574239636	0.03724050771125278	9.696576894342805	-0.2568991233410619	0.0283591591476261	-6.459991405350266	-5.885718065499304	-2.09938893835569	8.62091412227846	3.230483168287355	-2.771168020608625	4.895979883060795	-5.730229364548343	0.916310590572276	6.143350233133678	16.23408603934349	8.421758750656513	-0.1984313993530185	-2.29745542805559	-13.39684164418007	1.478923476494663	-7.403731420725682	-15.78208599482435	2.765191477535192	9.233264080970754	4.366520006899269	1.134803726162728	-1.469447097843047	1.611108614901202	0.3036060661044567	-10.50215755242136	-0.2407846948640068
0.4672499999999999	-0.1602614944805847	0.08393551761790205	-0.07738044874216982	-1.542975446914304	0.9482435640150222	0.200129591278827	-0.502073797878041	-0.06970441990287267	-0.134792693239841	1.439969190388154	0.009139629958870082	-0.08943757370647382	-0.08684097515275085	-0.1422414572509125	0.207687357637274	-0.2072759905805485	-1.838507653944802	0.9167339196449624	-0.5481778922862705	0.1903472277106241	-1.377770603505521	-0.4655862192460014	-0.04046204966134165	-0.2288282959048892	0.06753542407219987	1.955956928512527	0.8198594731073179	0.1825652388841986	-0.2004049863987453	1.508908918585557	1.741319586875274	0.2354414448477196	0.3729777472675749	-1.355885755590561	2.592021362334928	4.017261251485457	9.464271415990215	-0.0574261475024748	-0.2394165576608105	-4.84761735165532	-0.9847320316930848	7.63647019078215	5.123483689323113	5.378534171125511	-0.4972121188790442	0.6294529096584848	-2.99218643781927	-4.029427974458309	-4.190359609638676	17.8391909102006	6.816853432770025	-0.5643985782822623	-2.310412656054906	-9.370910185754258	2.515815209406492	-6.437512077627099	-13.70881246201775	1.561537789647639	9.559205079616484	3.914225501651295	-6.489032747298683	0.2416747338917199	1.420328413596517	0.04554149982822776	-0.2278281308773849	-0.3924675695200304
0.4777272727272727	-0.1731336794422456	0.1030748242726527	-0.0413604171505241	-1.44399593109004	0.9485182884037039	0.1980194017829762	-0.5466800862193877	-0.07440775383916952	-0.07259068927627933	1.468602778611073	0.05535093947172294	-0.08893119232326382	-0.08203095339738696	-0.1646776836270551	0.1733696355592142	-0.2560894984621173	-1.635082016722174	0.9735081976759413	-0.5540137456429015	0.1675686370765517	-1.456917649054171	-0.4355521232187273	-0.1027241291166962	-0.3741074063828199	0.07976599652761232	2.05401311514111	0.8588837941745995	0.1216868192668531	-0.1838710994919942	1.523016283123614	1.740202142852676	0.2685938134122595	0.3663595422203161	-1.49042290273837	1.232056784009384	1.830839504974173	9.469446126391203	0.1034323702181572	-0.09463697040742723	-3.753650103771262	-0.6789521100545853	1.610211595910645	0.08562609364346573	2.625939323321433	0.3573011745163622	1.073889753623717	-1.497952139254938	-1.230719177943395	-3.248330352991872	21.30226205677456	3.782513719893134	-0.4734514059427199	-1.980659840170661	-5.815907714790689	3.150307996864925	-5.442929976179167	-14.50100287029936	0.8562013706642095	9.013385226721764	3.549736918271275	-3.335838728052001	3.106802931048272	1.281231391852353	-0.268115010335784	5.858215235178568	-0.9362228255510111
0.4882045454545454	-0.1933038838929963	0.1112965024317221	-0.03860527525070283	-1.344373610615442	0.9503223428621372	0.1982325333870171	-0.5755022428136405	-0.08989200504176001	-0.104268385198659	1.444258614281449	0.06438518072913005	-0.0819487999013445	-0.06006336269799287	-0.1752634275460164	0.1823795270713491	-0.2845671955867042	-1.388737313461391	0.9927111251986156	-0.5575805845162639	0.1504505225685327	-1.502710664278384	-0.4003382498271034	-0.1582407807780433	-0.4807376357562421	0.08458583829572265	2.144678407562202	0.8985891398659342	0.09819888450117191	-0.1418178590119344	1.53651112373536	1.740060429304566	0.2736998140303542	0.3580134888334719	-2.002810741149878	0.3817193141041945	-0.5093897999770962	9.519327416564277	0.246181825688549	0.1034510555859798	-1.593628445357701	-1.69562105423092	-5.649509523071724	-4.537740509938315	-0.234659333071647	0.7469313795243926	2.429452738593135	-0.6372056595978142	1.803045771937111	-4.058651999851286	25.23013458942701	-0.1735277324670148	-0.232640481151187	-1.352721928189587	-2.859585128161955	3.449189614127798	-4.987694122116316	-6.155327230304802	-0.03572474355151787	8.216086338815487	3.986364804780334	-1.882647797179178	4.811768948057138	1.255192930744547	0.2180674511144504	-3.133486678970937	-0.6441216563700106
0.4986818181818181	-0.2076199735257235	0.1120028109560293	-0.03536463855825415	-1.245110915609401	0.9537867053861259	0.1995193403619238	-0.5768350109541198	-0.09775981878953802	-0.1489044617030024	1.377601112248048	0.06440498003114549	-0.07807046322123505	-0.04558228885844499	-0.1804283240578335	0.1871049177240434	-0.3803404116270482	-1.116709607055091	0.9686849537459782	-0.5594171002294969	0.1378459221945605	-1.515457903824766	-0.3658419435679245	-0.2037413724535728	-0.5094125811413597	0.07693074846979382	2.224552045179771	0.9415104600151935	0.06683751639179725	-0.08532555589760023	1.548488536758011	1.744289777507059	0.2396044702765222	0.3531310789607765	-0.372934607757734	-0.2025473978975131	1.923515300529948	9.400797446927166	0.4203675324066132	0.1103162457231359	1.493781965495691	0.774944844443246	-0.8634055216876444	-7.991540322695624	0.9051781691468856	-0.2352300733779271	-0.3552067402297883	-0.4631699877827583	-2.048584851762835	-16.09432962541403	26.20487437088617	-4.469461789493906	-0.1431511063952471	-1.119077966426383	0.4921796163352813	3.013332058350499	-3.530970586261684	0.3798322511123729	-1.525130473751074	6.953373029953917	4.163632259480275	-4.838793466110624	5.863066514163546	0.9915705939340481	0.5662742175451374	-1.624904731696816	-0.2750500939998309
0.5091590909090908	-0.201899061740246	0.108599757802453	-0.003316016527673635	-1.147576906198383	0.9585790094611704	0.2007237436948858	-0.5466503800393642	-0.07488421890640609	-0.1306489001828297	1.284473181488288	0.08019637499479447	-0.09021103765387156	-0.06643315861404318	-0.1855790765965149	0.1444179860154493	-0.6093291740640658	-0.8559360950944446	0.90016642874293	-0.5610067169708841	0.1276776148799887	-1.494206371307672	-0.3397728735959288	-0.230438186754052	-0.5165391972448957	0.05066636585004083	2.286178831259803	0.9853287542458364	0.03319287014472607	-0.0106301471173484	1.556684993720099	1.749264237670111	0.2552620138106391	0.3474904618861304	1.293610379511399	-0.3856676726089351	3.592601164323069	9.248021170016257	0.4856711714111793	0.1170379625018824	3.927378060775707	2.879634321999993	3.08155797125264	-9.639528899074016	1.808050440578166	-1.916854948905544	-3.187653931547603	-0.4520559119145905	-5.19290581378603	-25.8440072568829	23.13935650028095	-8.411494273864877	-0.06587442981765024	-0.7409648297586562	3.404627389929137	1.963142659048163	-1.638909883233698	-1.418001147360417	-3.312935034188361	4.620271997988225	4.254655457603626	-1.557039578500013	8.066323492219224	0.5590994183721909	0.3913127921116075	3.496176573916357	-0.8335427990873414
0.5196363636363637	-0.1841042608615789	0.1052077533623257	0.02730991091261449	-1.050681355899453	0.9637801369259733	0.2019183084257621	-0.5016791683345636	-0.05234074476877731	-0.1108736848747418	1.178669847391225	0.09598074754881296	-0.1147709530687865	-0.1032136840239084	-0.1884760827737038	0.09729551833235574	-0.8847335731590712	-0.6409430286141433	0.7965854353281644	-0.5588190370975883	0.1240162189273907	-1.447465794954723	-0.324701695703998	-0.2396292221883886	-0.5323740435501018	0.01118776758876336	2.31738107126664	1.031793046889484	0.03476727050489885	0.07680298729300922	1.559911968343422	1.752657519064636	0.289446737950903	0.334996976618795	1.931842485953081	-0.2004383159376227	1.651938025159601	9.278922388654269	0.4984075721001933	0.1084381611601289	4.316383070753688	0.711545569813581	-0.5733197660769654	-10.4111400920723	0.9038376657900886	-2.605950260884421	-3.396008687248207	-0.03295376259547685	-2.895281523684619	-24.95458130850056	17.46587393212186	-11.16251432795615	0.5778946682080069	0.1230222501759741	5.357767159839133	0.9139513576006079	-0.1893034708158117	-1.282476334021975	-4.047583784931442	1.145650569127125	4.668725232027916	1.884148185597515	8.294562946808457	0.04294923642576812	0.2644439970889899	1.911737119368107	-1.58318979238736
0.5301136363636363	-0.161539321757926	0.101940342861327	0.03580762995594128	-0.9530307177222095	0.9691866782302632	0.2026280500346895	-0.4575751451829917	-0.05768040865897248	-0.130140362354145	1.068431073375729	0.1015693134238565	-0.144074040972811	-0.1382122372234864	-0.1842897425002607	0.0796929367187426	-1.128649563574905	-0.4915039522316301	0.6687808438369929	-0.5474505021944506	0.1280743219672758	-1.38024916052983	-0.3191267951843538	-0.2335851364284655	-0.5230712965851803	-0.02728181572841522	2.308209621018801	1.08038623304445	0.03695806747308569	0.1513349655934566	1.557558902697837	1.756993926862364	0.3047324352341588	0.3209346828747777	2.265704680439234	-0.5226678645522583	0.4252841520557987	9.325176897439258	0.5144900950846533	0.03233238118293726	4.285256967972761	-1.158159672893249	-2.670060297891704	-10.27950213509259	0.2260684224778619	-3.01428469611908	-3.360917936906501	0.8825424035836636	-1.137462317243934	-22.0693602027676	11.16279941626074	-13.10006549948089	1.553609125583021	0.5829754571716212	7.531329153933517	0.139261266237276	1.375146674911725	2.538569122494897	-3.353752278116272	-2.929039379960337	4.51956731974478	-1.050560192806465	6.121689353873165	-0.4949348401700661	0.559305543900709	1.236417765464899	-1.122282942980889
0.5405909090909091	-0.1389295126675838	0.09217276651339179	0.04575791736630831	-0.8560386213080358	0.9741596880000065	0.2027066350693929	-0.408056191845927	-0.06460939424088366	-0.1577204298124756	0.9706596456804518	0.102040313569267	-0.1784910360022115	-0.175234304982379	-0.1689254251607661	0.05936652483601217	-1.356888342867118	-0.4048871093941701	0.5248865514878885	-0.5270733105359828	0.1347936535334578	-1.288431598990087	-0.322013549449636	-0.2101411863997847	-0.4900696159117801	-0.06030188665509487	2.25532008153273	1.124662275031876	0.02145752880455574	0.2090383060343902	1.549481943441921	1.764293178516203	0.3201806757173038	0.3110372712440026	1.940407689485978	-1.441250885417931	1.929217886980731	9.153213765768911	0.4156510101910906	-0.01204292025357658	5.350035687507204	0.4081609518721286	-2.160257549473061	-8.031256195804881	-0.07305123704657583	-3.582140775055979	-3.782276108549038	2.100803247843859	-3.415231770284013	-21.96196833913243	5.473777290116048	-14.23386720322316	2.297551489182082	0.6310224894691124	10.05382266115543	-0.7012886013441153	3.132145673762647	3.241398213366581	-3.007329792818846	-7.19966798394127	3.844628297660232	-1.492939745055582	5.082154852150718	-1.049681214136227	0.8300193969542184	1.942764888544333	-0.7881580657814612
0.5510681818181817	-0.1221902570275587	0.07738763585931746	0.07757340062956976	-0.7610902288895881	0.977738009976571	0.2023253847481981	-0.3461827020805145	-0.05540097532886593	-0.1836312982549298	0.9010259479876152	0.104000112766765	-0.2104851832120312	-0.2149374428691941	-0.1457744762072121	0.007289956972325121	-1.587596236796641	-0.3771404888206794	0.3771428749350677	-0.5001475587766731	0.1420005615177617	-1.173599774982991	-0.3367492787449646	-0.170701972129009	-0.4622201285824034	-0.08443794348434581	2.156954911877043	1.163998238675129	0.01507492025110435	0.2562865763931221	1.534737533537165	1.771316219126033	0.3413019835546942	0.2953597834770126	1.355751567899001	-0.9408854345854045	3.511091155525063	9.028717755235414	0.2841479855801694	-0.04434562350708312	6.36020331765018	0.59589820324397	-2.479806190430381	-5.741219836349821	0.5744387632132039	-2.301390655443066	-3.66033019688335	1.759066356883329	-5.697500223174105	-21.84026296264502	-0.06943342437776152	-13.77950949808316	2.813860650718575	0.7142665656019951	11.74826672139616	-2.115864622093987	4.308576991978538	2.385670560082738	-1.213032253347645	-11.49231962030147	3.657106515202719	-0.03241483957134703	3.928424947040269	-1.73572943680228	0.5123601735607731	1.991134433035009	-1.971742419665879
0.5615454545454546	-0.108407858388779	0.08168087872671605	0.1060685066447273	-0.6656454038751665	0.9804645618393396	0.2021207976673344	-0.2768922458705635	-0.06791669069786406	-0.20327059412829	0.8402938093890447	0.1167445676612797	-0.2220257690547195	-0.2490787410518253	-0.1437869719612344	-0.04266888788503292	-1.809565396962609	-0.4040829683487147	0.2401103241574201	-0.468705828642519	0.1491230734658012	-1.04472643302211	-0.3664397789406076	-0.1216968097461245	-0.4335642546493653	-0.07761196715972819	2.016282322404797	1.201146868287875	0.01434561281129746	0.2911761876909449	1.513721147586013	1.775066244350473	0.3598518334985248	0.2745977959820903	1.375975116580127	2.200607834516167	1.295393162830736	9.247977471724907	0.2530571489892555	0.02168021456018714	6.765855746334533	-3.738745375089683	-0.9630810069995743	-6.332043179979668	1.985624904683283	0.3222266876502478	-2.720580026188527	-1.939073399155531	-3.010980957796046	-20.29383694825875	-4.965790625142722	-12.1892271420187	3.159603760302035	0.6149121831973755	12.73419919029446	-3.5559954109486	4.958183491258465	3.395328844868108	2.902993238722225	-15.27570473851242	3.427089480557055	-0.4137846517785391	2.723018198441411	-2.246934776138046	0.2052355489842064	1.45190090886265	-1.758735020354206
0.5720227272727272	-0.09234176358048087	0.1165178302201063	0.09619441027357507	-0.5673385228682459	0.9828693499844567	0.2032901392274079	-0.1983486847884921	-0.1247575351367549	-0.1880578019593586	0.7651279659346346	0.1391085475242214	-0.2185421584529615	-0.2712916613210019	-0.1814496353535748	-0.04671455859721729	-2.012680508376531	-0.4693803063500593	0.1220030728838182	-0.4348410450776742	0.1543737027162439	-0.9016001565233965	-0.4054462257562485	-0.06337438132627947	-0.3928106751470772	-0.04789038309842025	1.841309982690935	1.230652947983877	0.002745621726968207	0.3209228170555717	1.488273768698384	1.778742709018739	0.3764303968209956	0.2874916536080051	1.572599928127539	3.522759495525636	-1.969679204092035	9.439879728075146	0.1812832025400541	0.1434439961080011	8.210762440830099	-5.923484438284122	2.779171178330312	-7.572756400521204	1.926981602920705	0.2419421162536213	-1.757359547718092	-3.957563245090925	0.9980077900257135	-18.43065497358535	-7.177202046912317	-10.38859469035249	3.255394868133022	0.3978153252042154	14.71084267418668	-3.69767167891932	6.158685325693837	4.220904795356692	3.269175689463125	-17.77859755204413	2.310953468175177	-1.582688084544034	2.813308222034809	-2.545986068749635	0.5003725947442331	1.716908491884333	2.276239640779545
0.5825	-0.07793307114574283	0.1360814575980001	0.09016180221534116	-0.4694689859141913	0.9837455210055064	0.2039093379417597	-0.105185468857687	-0.1671448706702234	-0.1678301499770275	0.6909047601498134	0.1496545627073253	-0.219068523543906	-0.2908849188418911	-0.19962659789117	-0.04775434317903494	-2.194765074888418	-0.5477395147726069	0.02174305575293617	-0.4015262628147215	0.1576778403864066	-0.7338741402748816	-0.4398943176967221	0.007014861109034913	-0.3485367172583782	0.001340781537583016	1.650991370922116	1.25178561078543	-0.01425411096136302	0.3471524688777823	1.461727204628038	1.785631163879043	0.3959155778678702	0.2815640065882245	1.059594620108794	-0.7149073979430215	2.028692450329238	9.164493140592153	-0.03873961222102491	-0.0833362071827862	9.556592463663318	-0.9797241523626274	-0.005797571903776286	-6.152103668214354	-0.2702989387564929	-0.4432350497853827	-2.220514252111967	1.780539779190612	-2.437189245274852	-16.2793294615362	-7.459162853051314	-8.782379843625332	3.054614357771676	0.2433476299118189	17.43002803624346	-2.685853916339674	7.261610027833962	4.067331660495362	6.627164801787709	-18.20514495724591	1.828693197018156	-1.444537929765901	2.051664567784941	-2.456757544205457	0.818370336184511	2.006743337816068	-5.351560202178927
0.5929772727272726	-0.07048864609319583	0.1037719267647439	0.1463202641522566	-0.3755996623978115	0.9821148633881159	0.2012983654616428	-0.001539526449989882	-0.1560079208740532	-0.2050983547757998	0.6401965204229757	0.1323235553225481	-0.2140628962804485	-0.3156862932003911	-0.1443721519705285	-0.104365791032967	-2.351640618539808	-0.6331447023718834	-0.06238584196190924	-0.3722350400295091	0.1597700011557074	-0.5419019301248645	-0.4645986181798978	0.08345589093412736	-0.3047186126744889	0.0783599582813876	1.463018409882606	1.27574064421133	-0.02330198371189207	0.3732494365269524	1.436885529259848	1.792456354903777	0.4152952730378028	0.2250476103266317	0.4789958245651834	-4.278261642054478	7.064805541356568	8.846135398082183	-0.2397486336661669	-0.323112550252538	10.3713536291699	1.805450392064056	-5.503357735600866	-4.221863861289981	-2.522598399269709	1.11249579551279	-2.336153731297126	7.007688908124871	-6.898400223792411	-13.60713667560889	-8.581964990651608	-7.411931849431541	2.514213009216648	0.1903813302489342	18.95981939699333	-2.016104654025132	7.214445480649435	4.249922119588009	8.094758209052792	-17.54296470068659	2.651434345776198	-0.4490677242823557	2.738164751754854	-2.323537343090575	0.5151653470631932	1.671573431105441	-4.64249011096508
0.6034545454545455	-0.06543316816869206	0.07104096527529949	0.2041178603191583	-0.2821749993049487	0.9794087332262457	0.1990656022784046	0.115138814777135	-0.1565575595256367	-0.2495195359124674	0.587888706731883	0.1075947952058247	-0.2017551341653847	-0.3361153673387806	-0.08964810832382679	-0.1614844266909572	-2.478651577404655	-0.7220844824044748	-0.1363994567098256	-0.3493147169814578	0.1623871447582428	-0.341935871386947	-0.4818510769660084	0.1557653307173121	-0.2604696769690035	0.1713772583064922	1.286192975110913	1.305404114837784	-0.02715227575062922	0.4005102922295946	1.412236330727699	1.797069089551619	0.430501314561432	0.2009275400203097	0.6035700056450092	-0.7953540307945571	2.341585752365674	9.079612192068323	-0.2440358896922309	-0.01114007242067573	12.04433887604867	-3.210569669504355	-1.371224725341496	-6.457445336011426	-1.682451304073747	0.9506648785038775	-1.385888613565933	1.679291622776942	-2.534006006136289	-10.57849765846487	-8.133878979150449	-6.851479841261438	1.838477314669356	0.3435612726984852	18.95596876451944	-1.263376542496431	6.472933403782162	4.149572742275092	9.681036491059725	-16.07720068052581	2.918373183240976	-0.4523750173197257	2.273838426148403	-2.42001576205444	0.3960359301833244	1.210037218782044	0.832554079955194
0.6139318181818181	-0.05922502917520766	0.08828131778928638	0.1985233947503232	-0.1846076139470242	0.9771153353661013	0.2005776039458171	0.253786408390504	-0.2099854258417423	-0.2268167067693154	0.499808823365473	0.1109573574052267	-0.1922129533897651	-0.3451157251635434	-0.1103151562191746	-0.1622552717375846	-2.569432968007799	-0.7904589088140762	-0.2124123438380989	-0.3321122670596077	0.1667979843946796	-0.1467151224929485	-0.4856433301028333	0.2206400225331256	-0.2184264845312831	0.3001099426301446	1.13241493680499	1.332147951079999	-0.03719311474788357	0.4213433401132322	1.388907618434054	1.803763274638047	0.4441020417037219	0.1754757490011003	0.6815946979806177	2.958299083856353	-1.950397091013198	9.510581236705377	-0.190773384368632	0.2070056097395626	13.89920079560285	-5.872491202856569	4.186972207696424	-10.24973651880282	1.586259677205519	1.528201845311863	-0.4118359886791382	-3.872806684054974	1.09717946478079	-6.565698058825653	-4.712886400409704	-7.815340853042797	1.422470540721755	0.396258587335324	18.16340213085069	0.5160418261093432	5.846916603279265	3.91349953724976	13.3531076802379	-13.24402216046625	2.369761771294793	-1.198014707728887	1.459619147539248	-1.981689303005834	0.8379314844812693	1.393729664445126	-3.83881542413276
0.6244090909090909	-0.04905317486351698	0.1093928982702277	0.1938232186820629	-0.08360558070092605	0.9754735244151869	0.2014595773721155	0.3954349564783976	-0.2562328900191811	-0.193592044434454	0.3753382688230927	0.1253682450993752	-0.1559575567965985	-0.3464142738768227	-0.1340969314969135	-0.1655181966090359	-2.612356061846149	-0.8165412981554374	-0.3034513842570497	-0.3199856130048565	0.1685497936778216	0.03560651326832211	-0.471528701801347	0.2769429001525606	-0.1776788281956532	0.4189248439008772	1.009369767167682	1.358896514896557	-0.04667593992117666	0.4259966628989351	1.371790052462346	1.81370804886528	0.4598641291048603	0.1592992318157356	1.360201129293933	-0.05637775944534407	2.512296112562183	9.735249966817319	-0.1196548744813049	-0.1314057670368342	12.61718918788849	-1.839907222210069	0.6372813936832799	-13.40403766461313	0.4265565994787022	6.049933841506319	0.08430488276932277	1.084723272125285	-3.009717556211137	-1.442857495120294	-0.06077862772932092	-9.719812790458013	0.8695618346157793	-0.1640193587330619	16.49366517302257	2.154856790630217	4.836665184083022	3.90226867072638	7.787837123040348	-10.21062271341508	2.919275626933614	-0.3458561094919798	-0.8146991196612541	-1.234373947888761	1.016538846432244	1.622617918952699	2.603105267326856
0.6348863636363635	-0.0287621462435195	0.08488576899264395	0.2385011465371161	0.0194118218441839	0.9746133233234896	0.1986416667683586	0.5152485649735626	-0.253371792385338	-0.2086943637921563	0.2190764785766807	0.09749148041154677	-0.0855537551477789	-0.3433789905168407	-0.08808200943933178	-0.2129664644093528	-2.603478118088077	-0.7874346364651106	-0.4159030277752408	-0.3177614698132906	0.1617958341934631	0.1960826339851331	-0.4458730365625066	0.3181410478306476	-0.139138924412625	0.4869033914151038	0.9190431321555077	1.398583654909677	-0.04364642703375547	0.4016402409286042	1.35943406822209	1.823869026562343	0.4733089677991863	0.1709234097975583	2.127463137291645	-3.978820813331299	4.977872134878318	9.928326541219436	-0.0736174263205458	-0.3380667107592652	10.91221249192141	1.765551832941836	-2.605171826869447	-15.89815938336561	-5.160660578672575	6.611433456006124	0.7665479795940128	6.552341323400529	-5.040559193821371	2.847126880097249	5.449230679040141	-11.67914085008799	-0.3879621855282763	-1.143476286258578	14.11241186666187	2.680778036531288	3.030070597159873	3.47981422326654	4.567188600915267	-7.002658523915875	4.659200285492918	0.6553362132142303	-2.835600249538134	-1.123122617729809	0.9824403887220523	1.021348551326739	0.3252575474268573
0.6453636363636364	-0.01255484692589785	0.03949128188075528	0.2763736261822582	0.124409686650775	0.9733217758636387	0.195809603154233	0.637888892187198	-0.2322390278030295	-0.2290092079984466	0.05323250640647975	0.02953501016085099	-0.03371998396587453	-0.3246635078557355	-0.02082406842610193	-0.2500376422312515	-2.558781760596659	-0.7058692295216632	-0.5467812447380246	-0.3269200552847199	0.144206628874058	0.3307576388476983	-0.4166483477493276	0.3404879340058347	-0.1042323264615565	0.5016079631060377	0.8632422967647974	1.456582896991392	-0.03857670410232883	0.3875132724058044	1.348279196535935	1.835538431104618	0.4828897845530311	0.1809806556595922	0.5806606117037517	-4.043552356883169	1.213208384856824	10.11329916206752	-0.2019943113522795	-0.1341074262829047	13.15677974586114	1.647959787475296	-0.3577341956350348	-15.23317434420843	-7.224233182587093	2.505112407474769	3.077488263460947	5.139789797281552	-1.028841378118284	5.394496970247065	9.953038253560509	-13.23724980374253	-1.3032800793616	-2.232352620086867	11.56850639824248	2.836145455579901	1.23815973450564	3.208709206057293	-2.381598608954786	-3.620014542723498	6.414861271264325	0.0435983023789073	1.137994813923848	-1.0050943280168	1.304481498012741	0.8850172014638724	2.303994580686048
0.655840909090909	-0.01926642076532683	-3.388796145120195e-05	0.2752178571353101	0.2308749998013661	0.9703898648901569	0.1952569753283777	0.7866544193455153	-0.2196694928937901	-0.2276578034712418	-0.09596379912832508	-0.04007692573522503	-0.01547485006934727	-0.2806147561778173	0.02276252922928143	-0.2455182379511681	-2.490292772381481	-0.5900895029476307	-0.6908627227676249	-0.3397435928334601	0.1154697255090662	0.4394906405450365	-0.3854841299474453	0.3455995575061064	-0.07043247945014704	0.4518435373290267	0.8392617992415665	1.533385273242677	-0.03912316107148089	0.4026625880623932	1.341171287341332	1.851798216799541	0.4924944215697061	0.1731464273087029	-1.671885058704628	-3.670604337913372	-0.9991282900426091	10.19565476907332	-0.3494231826244561	0.01397716885501621	14.93320029032719	1.009398309278341	0.4028874137694706	-13.34052707327626	-6.255523062797318	0.996814755318768	5.154196365047802	3.546182250580543	1.295996082123798	7.640747625256544	11.99488714679817	-14.19895184194034	-1.058438864375834	-3.207120916071957	9.404266621978685	3.040012435609691	-0.2065181785790904	3.185064697903216	-7.378357826326675	-1.132015922045455	8.304903686032112	-0.07427978333276732	0.8160490029750719	-0.4042835196523608	1.758885026501463	0.9071006377629856	-2.859835663309443
0.6663181818181818	-0.04360825530137451	-0.0409705312994765	0.2645463742791283	0.3377586436301706	0.9661727128524223	0.1957957247380139	0.9443579713050038	-0.2056819536590444	-0.2250263383205521	-0.228275877556155	-0.1055610535762891	-0.01243142754063026	-0.2203634628387917	0.06114877420609444	-0.2353601451513304	-2.399481694649621	-0.4577319274432791	-0.8429010488829999	-0.3472937573415871	0.07796878585773449	0.5323626900153514	-0.354470922563472	0.3373315253209831	-0.03871150562268614	0.3415400810049295	0.8358667693885646	1.63184485764873	-0.0385902918091813	0.3849620456868085	1.338706383753656	1.871547377643936	0.5010321327541638	0.1407436154324658	-2.784768762054265	-4.31298764458828	-0.6032402381639169	10.19315404207354	-0.4473331696044594	0.07422488765041649	14.86295367753809	1.918641741151101	-0.1133842284622206	-12.01015485307221	-6.436278499634712	-0.3967327126278381	6.170381248661474	4.147097745840791	0.04752432630335081	9.655546595991307	13.11757340728741	-14.75612752944351	-0.2966492169451999	-3.905313993618148	8.54081920523153	2.807319171900961	-1.315874322576292	2.811874411724387	-13.93785606696692	0.3095324312031079	10.54899211208792	0.2496302077319328	-5.132693921068076	-0.1187939084731113	1.970566125243726	0.6813524005200137	-2.385886873176457
0.6767954545454545	-0.07482851921889834	-0.08977778848341313	0.2595446449700829	0.4443011379304235	0.9610498053265797	0.1969946660870458	1.095551386189018	-0.1798226710545693	-0.2262837642508696	-0.3502918379064588	-0.1749915923796878	-0.03368657279778972	-0.1543032249822328	0.1088399750839221	-0.2431849388288493	-2.289627486689832	-0.3109847840177539	-0.9987436362579657	-0.3477692279762234	0.03360130964228789	0.6222386291024966	-0.3273107088290056	0.3188330273688779	-0.01095330862038929	0.1241522270351041	0.8457782836537271	1.751897363360266	-0.03941954783912436	0.3362468154311978	1.336759047556372	1.893505061263839	0.5072759383858112	0.2036041756144777	-3.071141989838926	-4.768762287272671	-0.5000959109321157	10.12180466335469	-0.5111753412714551	0.1475445461198487	13.7540883795565	2.788131045611358	-0.07035733069856898	-11.00604970446634	-6.456236619310998	-2.89358857068069	6.188807116309499	4.752497064593659	-1.223756604443583	11.38078794114191	13.72164172517618	-14.71405110730827	0.1996713510478251	-4.530522328492792	8.535164423130988	2.349807076579238	-2.150682437236353	2.592194266370587	-24.30544777781242	1.526028746011777	12.19236067110495	-0.3986955892640479	-3.743296584648573	-0.215486461918817	2.211597417114984	0.5313907323373527	9.154348049208791
0.6872727272727273	-0.1057895320830294	-0.1359726904283025	0.2509541015301748	0.5493772079295647	0.9558677858721593	0.1987387659204929	1.227452090464227	-0.1520667810440207	-0.2253211613367897	-0.4531329095542236	-0.2332831961507101	-0.056991866634221	-0.09593959986183208	0.156457350439691	-0.2543516465717609	-2.159612460012194	-0.1947861824466561	-1.145391149929122	-0.3432399795005707	-0.01626546100449353	0.7095288996548845	-0.3058074019171371	0.2936188230457866	0.01781376170442745	-0.09958916211644132	0.8666613011737097	1.883654921276734	-0.04675134985018319	0.3153915417702348	1.334975614465735	1.917694997815111	0.5126044425846086	0.2229566043787892	-2.735280491558473	-3.814316796353669	-1.288306709998876	9.913229229713826	-0.4586170084652872	0.1782898477990973	11.18018028583573	2.2806839358029	0.3103956810973594	-8.349872410938936	-4.309974198443567	-0.788084285243719	4.701179685143221	4.133005238376223	-0.590411547350789	13.50403259853081	7.286181469782824	-13.00088569444301	0.658698465713039	-4.955070848189652	8.047242565191116	1.72747578711008	-2.597831287102903	3.004457605611046	-15.15067840100457	2.403875785702363	12.78336216422214	-0.9916367040645693	0.1854756674981064	-0.08750654755145136	2.396679483075306	0.5066310857893958	-10.6911267099609
0.69775	-0.1306641503948817	-0.164517731019802	0.2311168877933405	0.6519784287384498	0.9519829736909168	0.2005884715147264	1.324906539885564	-0.1320237981395467	-0.2178311724768414	-0.5220745494408867	-0.259423170099073	-0.04280968920831896	-0.05957249694570614	0.1905484638433159	-0.2517531666646778	-2.005553714146145	-0.1716156890341604	-1.265174654998613	-0.3334551599818961	-0.0676191636724513	0.7871948565118331	-0.2917773524434401	0.2656580078161113	0.05143998111619504	-0.2467652012877136	0.8927913669534927	2.016341567833931	-0.05481585430026357	0.2873130681226412	1.335626666907236	1.942396462731365	0.5174229544232251	0.1633982578385782	-2.019061473936359	-1.802520549564471	-2.338460570106832	9.693408337422468	-0.2848257875204254	0.1668683987965171	7.329715539195511	1.592688495555327	0.921805129878946	-5.079145388620882	-0.9902272480029268	2.6344674459163	2.401224650188485	2.52476986856963	0.858858149595064	15.9023205963301	-2.024582634254014	-9.860659708841068	1.100057416308149	-4.801581768745468	6.59249090155746	0.9748224545850491	-2.677269851366544	3.269000073439862	-13.47385309712669	2.597050642553152	12.36839885576608	-0.4245192229560908	-4.834936981428466	0.178730415275159	2.293372779449341	0.4601899732092252	-0.2974049304543423
0.7082272727272727	-0.1482246490891558	-0.1772618003267358	0.2053043183435127	0.7529414684213693	0.9498601338245686	0.2020692291583665	1.379091603638358	-0.1176998905115915	-0.2101449013795704	-0.5651964968144484	-0.2605363743636758	-0.01982638862703495	-0.04226378596611741	0.2125089529030383	-0.2411234075365509	-1.826424779033705	-0.2196379529699257	-1.351936064046145	-0.322474124369368	-0.1159118345053329	0.8437766828538669	-0.2848752070398722	0.2388237645865608	0.08326674878000448	-0.393037518995621	0.9213531939474316	2.139126230626248	-0.05306384314710174	0.2289641811714995	1.338028173993478	1.965223635620548	0.5232327627686798	0.2246983196682294	-1.339092798832072	-0.7980793277164014	-2.428938603151661	9.600517865104345	-0.1222752216742082	0.1078616056033817	2.92051447492081	1.188973253951178	0.3478638739051904	-3.421167549435851	0.4673701229683351	0.8919565773888471	1.06313523738774	1.817397988347103	0.9426742909395698	18.28966525293958	-6.303759195394962	-6.69731855793028	0.8870434033683906	-4.370752406786826	4.022506154534937	0.3668346630941085	-2.382780666688622	2.660961393419465	-14.97816757936444	2.868073154131265	10.89317871235755	0.8822317841899092	-5.592824485890676	0.2466366384292986	2.038897057083355	0.6958590523875803	12.37945883569608
0.7187045454545453	-0.1596364771069573	-0.1838492657684309	0.1812977036423935	0.8532647887587853	0.9493174005819811	0.202874137223352	1.387621808746522	-0.1063992829182965	-0.2125603557463837	-0.5922255135950872	-0.2541787473168551	-0.02629157286783794	-0.03464231238522653	0.2307007118137752	-0.2334454578186599	-1.622998117000222	-0.307370716679779	-1.406618758214221	-0.3161707674398056	-0.1596076658201915	0.867514405019188	-0.2841787510198663	0.2179961075529666	0.1075275106032056	-0.479575369986284	0.9543186932099654	2.241875448855522	-0.03576271790816368	0.1962320802357705	1.341251592648356	1.985229440161108	0.5320885194469871	0.2439577719092577	-0.8082000500454671	-0.3922977560097198	-2.288984669624674	9.545371468714563	0.02228921081332154	0.05238847935879863	-1.22592141555606	1.086085663658522	-0.7303930638536181	-1.590482333028989	0.9103114886028264	-1.607352591565475	0.3000447057700406	1.58265136508929	0.7386517201990457	20.46399398406128	-10.8843955551084	-3.741856500038476	0.2916798926572032	-3.903370609014445	0.3773037604126334	-0.2331452139388045	-1.599442182246562	1.919240953639681	-2.998182098692401	3.415081025805534	8.517134406992524	2.455937207759466	-1.319185057661049	0.3810679473005628	1.744176099757775	0.8521331717180995	-5.355025879624093
0.7291818181818182	-0.1645083473090185	-0.1840761704289653	0.154504206173132	0.9528605157066113	0.9504029656666493	0.203305341359878	1.354791584469148	-0.09247106397728749	-0.2238038638669871	-0.5954251092983772	-0.2380230271336762	-0.04263779290232791	-0.03789756378260255	0.2441521459528338	-0.2211256730378118	-1.39925242103538	-0.4569544295344682	-1.430362357748447	-0.316875921633855	-0.1963023529295368	0.8489280398444485	-0.2897450814637684	0.2051731391129933	0.1224165815609345	-0.4863978945366689	0.9927133073448972	2.313336326329329	-0.0008554823725914957	0.1874116434980933	1.34627286927065	2.001021413244313	0.5381032727588484	0.182642177169683	-0.09068436545866121	0.4160841185789228	-2.960924901625699	9.4616280206707	0.1885496217065066	0.03652549778465772	-4.974751871993086	1.690556331172058	-1.33731775371632	1.12761564971101	2.3377219581083	-0.9942281294320925	-1.013115951522215	0.9125203746644964	1.828751266081072	22.16835285805825	-18.11044796924651	-0.7913742460456097	-0.4508068761930774	-3.034308393586885	-4.056712253112179	-0.8286647052874563	-0.8547706965397136	0.8720052195332276	0.2386409385194488	3.904433476844952	4.920567028016809	4.243051103287096	-1.028341949169299	0.5898286148559676	1.234521420972302	0.1535417069488173	-3.001461195308444
0.7396590909090909	-0.161975214944945	-0.1758183483924503	0.1224500124575042	1.051473917107678	0.9529716164787304	0.2035847580080866	1.286712327275912	-0.0737083974422939	-0.2414222488744625	-0.5708291924542854	-0.2075401086454593	-0.04677364571493913	-0.05445666891215992	0.2496263454105777	-0.1984086608477315	-1.162241518745286	-0.6764125068536362	-1.423922840094441	-0.3260462235651934	-0.2224473530819244	0.7825050731289748	-0.3011986516552866	0.1999407324866535	0.119538776900221	-0.5018465198025656	1.036520278761462	2.341798425442681	0.05564255168897179	0.1768103651232855	1.353426763354423	2.010505648936078	0.5391358231698744	0.1924369423864865	0.5329077244952015	1.07625073630552	-3.012351152402217	9.369903146341372	0.2870619093320484	0.02692218736961069	-7.767217046142441	1.833288533426933	-1.995250539799147	3.356708410310615	3.185103127405045	-0.07686323974587501	-2.041519696384107	0.1572910773430835	2.30547523594268	22.6415734011191	-23.06496355536972	2.001411262548059	-1.277329728108872	-1.947895049523623	-8.425460822283879	-1.297138734410909	-0.1577268547128092	-1.426033200079423	-2.512376976537269	4.477027143984269	0.4590862958192303	6.397189638351166	-0.8929851300759805	0.7690679109212412	0.5761645663139608	0.1469652996343837	3.522091780931454
0.7501363636363636	-0.1542074481513065	-0.1632839150505448	0.09443124730090247	1.149355147304887	0.9561098376915454	0.2040813343685666	1.197347943717906	-0.05526543482226416	-0.2649723457533597	-0.5295035053646007	-0.1774840235340268	-0.05014924868433259	-0.07844876206973161	0.2479687238505242	-0.1770526990162003	-0.9338805145868148	-0.9252499798884106	-1.388825989426182	-0.3431728947831101	-0.2369394161883654	0.6765099418504145	-0.3156569980733488	0.2015812451115332	0.0924365181915881	-0.5248942161871684	1.086929188023136	2.321836064633246	0.1301639907072973	0.17084412388382	1.362247820450011	2.013099838895875	0.5433496498950311	0.2281765258925419	0.9085517078639247	1.23244376038881	-2.190604482549152	9.321864320151183	0.2972745572045268	0.07797897865208324	-9.037856253988217	1.629528251959868	-2.46961850140636	4.321150967741769	2.256244003320839	-0.8491045151085255	-2.431994360340569	-0.4488684530278609	1.568941219329828	20.51717924508046	-23.71866233578308	4.679006025655707	-1.969593204216702	-0.8098865713671564	-11.6106178530072	-1.402244548966127	0.4571965357971725	-3.752185574863534	-1.211940967003613	5.164673239034896	-4.323147664402193	7.683527537549742	-0.1435626261538504	0.9080723134235881	-0.08071507450119679	0.7608135413164997	1.951128846891492
0.7606136363636363	-0.1428219629509289	-0.1507228113350547	0.07422696432992297	1.246955764215379	0.9591543690427314	0.2054456807362924	1.101325272246014	-0.03765834727643937	-0.2919954025744305	-0.4828465765610968	-0.1605669442255088	-0.06377777433064991	-0.1060195934727789	0.2410585644318942	-0.1635490245356536	-0.7404619428649548	-1.168614778542377	-1.325811875305893	-0.366683841308947	-0.2395770224502448	0.5438918821670842	-0.3295441955321941	0.2070745521679183	0.04697580477418251	-0.5167148957111813	1.144397090405203	2.252138956093224	0.2081967613976204	0.1687928862419104	1.372448750325979	2.00866649794468	0.5514559211748679	0.2352478460061625	1.242115768983945	1.15510651232907	-1.748827777970279	9.30567984144837	0.2808221833575433	0.1745304486699798	-9.164642011546258	1.70220797852799	-2.722502395154951	4.60910161578365	1.110974586895472	-1.586428219514228	-2.84065420832722	-0.81585009686848	1.104961493959179	16.25662486739044	-22.71047309512854	7.332258248861368	-2.4954019224367	0.2616177109633982	-13.52254855522999	-1.264706527144311	0.5799902768648264	-4.662836396085889	2.271838687610519	5.798227464420299	-8.810552778871557	7.09035543043962	-0.2989969664243446	1.035893251167675	-0.7475244611314172	0.5450407731974644	-0.1628018518037356
0.771090909090909	-0.128655158210614	-0.1392935672803854	0.05605347565101332	1.344280691726784	0.9619299679198439	0.2075723753900424	1.007972644708464	-0.02020977226209488	-0.3227274519909488	-0.4324202075840034	-0.1513138382840745	-0.0799135097289336	-0.1381760082845743	0.2320119912451084	-0.1518830151410499	-0.5963262669417058	-1.40057985484093	-1.235547723940182	-0.3949810650266051	-0.2323956356813933	0.3969692443038099	-0.3424943061970788	0.213495227716532	0.000238794261061465	-0.4877964760825607	1.208279400558079	2.140792647183833	0.2761880852949033	0.1635100938287233	1.383885687949088	1.997813784404827	0.5497092300227281	0.2339533859405111	1.439476045205542	1.016383781750563	-1.802947437642112	9.269238144186415	0.2459382064052205	0.2235031634029274	-8.528173246998694	1.599269894540638	-3.177625764745577	5.040697031246949	0.7932729484328448	-1.327704207457853	-3.307333492596184	-0.8566871332832215	1.218150487089087	11.10959826833912	-21.54257650655008	9.880748493328381	-2.883242646473263	1.064454831462186	-14.34120978323512	-1.223364640357615	0.6342213239015433	-3.995817124587961	2.746932623954627	6.389115503310759	-12.2735373227634	5.766722075971578	-0.7604320835777523	1.144013054743358	-1.30610506973296	-1.120012259147543	0.3541903311085552
0.7815681818181818	-0.1137403236297228	-0.1297482789876496	0.03522929349642787	1.441142495357523	0.964171193179216	0.21002034327309	0.9245286111035209	-0.004363002617194931	-0.3576565265749138	-0.3748974690204546	-0.1426247693947838	-0.09246314913319448	-0.1741437662180649	0.2237773489345042	-0.1364677109331871	-0.5098303280073815	-1.621802238389219	-1.120316428342453	-0.426560142449672	-0.2171550076418564	0.2493616049963104	-0.3540231003174214	0.2201277782188533	-0.03533872951300603	-0.4637988940385783	1.275823650398223	1.999136734358726	0.3256724910935459	0.1545613981332518	1.395521743422912	1.982078626925244	0.535467319486488	0.242358034002901	1.429297077524804	0.7997510520385922	-2.198079556505541	9.228474968080215	0.1774614216350229	0.2400447323892214	-7.497420136560811	1.413706863803011	-3.392912286262923	5.961988335382851	0.8827365398571956	-1.135605624225688	-3.540008021880773	-0.7108480744333171	1.804017431422699	5.457892417431917	-20.77323737018803	11.8598389054613	-3.087497296400355	1.737587740811283	-13.68663216908008	-0.9774745642382184	0.6450791820349564	-3.06232398128224	1.957381505449485	6.400401283489482	-14.30293237050777	3.890532092492686	-0.894584688404603	1.079722733273158	-1.627117913738296	-1.025548054874696	1.047149040491627
0.7920454545454545	-0.09825038915610466	-0.1226600207528468	0.009450744276122349	1.53782314561473	0.965555837059642	0.2125239675665614	0.8488347230929899	0.00916229233146941	-0.391790726631549	-0.3070241356278424	-0.1324527538877883	-0.1051285896198062	-0.2119671645624713	0.2172080744388394	-0.1124137116852378	-0.480778131289159	-1.837692712685635	-0.9923912460465663	-0.4584759993027604	-0.198232258097174	0.1132919574445712	-0.362979250053549	0.2272895273506489	-0.06952085633254464	-0.4441940002736031	1.340218411670392	1.850807009784167	0.3621381651140215	0.1458791369179553	1.406563937795363	1.965194543704357	0.5402277377103484	0.251641755417057	1.549256501951705	0.5473628596288922	-2.748683450187374	9.234657890670407	0.08242592582551186	0.2341273805771023	-7.04875282984406	1.156125050139914	-3.025892666253127	7.016515566946699	1.076351695413376	-1.349809403221135	-3.661555523313273	-0.538786118717803	2.867185548971114	0.1441984526841225	-20.52477170358937	12.30387653983145	-2.947530260013161	1.767332689277378	-12.13872979515069	-0.7322741722211058	0.7352397173803941	-3.729450677736457	1.908415121671282	5.787911611810119	-13.54749704933987	3.281584556495017	-0.7095725732623548	1.030651282680915	-1.525422781739025	2.507330324125427	0.5219960902309265
0.8025227272727272	-0.08133920953497233	-0.1186349195862436	-0.01923495999482053	1.635311082707337	0.9655524123626134	0.2147204867826416	0.7747023868103636	0.0183295270059717	-0.4212405243201027	-0.233847850365082	-0.1219786521595969	-0.1196827404303644	-0.2483450203058288	0.2132144889526531	-0.07849225938111511	-0.5005191045489786	-2.036835885595472	-0.8739810068385251	-0.4866775351758549	-0.1827600226546592	0.0008718185940144157	-0.3709572588087382	0.2367892415004381	-0.08224085604996731	-0.4250994832516902	1.394036657339252	1.729022227677091	0.3777700317621581	0.1415173650433666	1.41599202405517	1.950944256445154	0.5363491450675211	0.2560422602221727	1.487995499958772	0.2529826867896269	-2.483537059541248	9.419597681747863	-0.1061572673300092	0.1732994328863678	-6.916611491665628	0.5544364121695452	-2.332325962029998	6.589194078819528	0.8719606029285051	-1.253123863179641	-2.911906884736504	-0.179660920877356	3.350344336243399	-3.322604864461068	-16.22984821292896	9.555509240884701	-2.268351762974564	1.111002406740427	-8.748906800394362	-0.732111255089484	0.939882533835021	0.486124486954275	1.530340876019654	4.2172377097837	-9.171648320435077	0.2033141932609265	-0.1755290416987349	0.7188860000383336	-1.102011896866128	-2.059231254052612	0.3116323208894256
0.8129999999999999	-0.0710706031696466	-0.1166884110779433	-0.03748663134162471	1.736146231342965	0.9628477790899067	0.2159067452280259	0.7077917568655938	0.01995535454867938	-0.4351434020652591	-0.1765542486318826	-0.115251624096661	-0.12771391077469	-0.2652173435878811	0.2143629723027741	-0.04760906562481487	-0.5380399745383229	-2.151385466849703	-0.8077473571988223	-0.5024985728707739	-0.1765264458321632	-0.05804778285902271	-0.3770938046049025	0.2440869073836852	-0.07641676589306594	-0.4164469020530466	1.422969084516089	1.669689052249437	0.3768955242819653	0.1411011911108472	1.420576280635736	1.944046834955159	0.5219815656991719	0.2580381542627995	0.2812598717760401	0.1505816146600082	-0.7569374690068837	9.873604996496605	-0.4332060799437796	0.0412793375809252	-5.670205849949567	-0.2834494131961501	-0.05815089831612173	3.984680099264783	0.361075160614049	-0.1046417654153252	0.06184329793369619	0.4427801667378188	2.287214286046229	-3.249794849264208	-4.376754207508357	2.343920179714778	-0.5842247509471419	0.0037709570395151	-1.926045866773828	-0.3807584663768471	0.3148921090165809	-0.1895810271062665	-0.084839438952805	1.037473374721012	-1.626149136565057	0.1306931827575464	0.04360013585281098	0.1060156823052407	-0.1218388605016767	0.5050942463685527	0.06298145405952954
